H1 CPF 01  gfz 2022 10 24 12  7972 tandemx   
H2 1003001  6202 36605    2022 10 24 12 59 42 2022 10 29 00 00 42   120 1 1  0 0 0
H9
10 0 59880  32382.000000  0    2844131.825  -1691156.149   6031220.675
10 0 59880  32502.000000  0    3334873.935  -2309788.318   5557152.115
10 0 59880  32622.000000  0    3756824.496  -2896061.323   4985327.287
10 0 59880  32742.000000  0    4103256.329  -3438452.747   4325772.990
10 0 59880  32862.000000  0    4368955.368  -3926097.585   3590070.684
10 0 59880  32982.000000  0    4550303.558  -4349010.464   2791155.550
10 0 59880  33102.000000  0    4645330.630  -4698294.588   1943088.263
10 0 59880  33222.000000  0    4653732.069  -4966331.522   1060803.461
10 0 59880  33342.000000  0    4576852.698  -5146948.037    159840.535
10 0 59880  33462.000000  0    4417636.278  -5235554.720   -743937.633
10 0 59880  33582.000000  0    4180544.195  -5229253.863  -1634632.638
10 0 59880  33702.000000  0    3871442.169  -5126912.469  -2496599.120
10 0 59880  33822.000000  0    3497460.040  -4929199.339  -3314725.887
10 0 59880  33942.000000  0    3066828.010  -4638585.315  -4074704.414
10 0 59880  34062.000000  0    2588694.094  -4259308.680  -4763279.156
10 0 59880  34182.000000  0    2072927.196  -3797304.994  -5368475.063
10 0 59880  34302.000000  0    1529911.977  -3260105.133  -5879796.735
10 0 59880  34422.000000  0     970340.134  -2656706.525  -6288400.017
10 0 59880  34542.000000  0     405000.848  -1997418.048  -6587234.729
10 0 59880  34662.000000  0    -155424.836  -1293681.019  -6771155.478
10 0 59880  34782.000000  0    -700561.071   -557870.824  -6837000.374
10 0 59880  34902.000000  0   -1220523.954    196917.222  -6783638.922
10 0 59880  35022.000000  0   -1706096.637    957095.079  -6611988.599
10 0 59880  35142.000000  0   -2148888.775   1708820.294  -6325000.741
10 0 59880  35262.000000  0   -2541478.567   2438241.618  -5927615.505
10 0 59880  35382.000000  0   -2877537.089   3131749.790  -5426686.804
10 0 59880  35502.000000  0   -3151931.733   3776230.028  -4830875.700
10 0 59880  35622.000000  0   -3360808.289   4359311.939  -4150512.208
10 0 59880  35742.000000  0   -3501647.864   4869611.139  -3397425.146
10 0 59880  35862.000000  0   -3573296.832   5296956.434  -2584744.046
10 0 59880  35982.000000  0   -3575971.290   5632599.763  -1726676.515
10 0 59880  36102.000000  0   -3511234.142   5869404.169   -838261.311
10 0 59880  36222.000000  0   -3381943.435   6002002.212     64898.672
10 0 59880  36342.000000  0   -3192175.657   6026920.524    966915.480
10 0 59880  36462.000000  0   -2947123.180   5942668.602   1851905.618
10 0 59880  36582.000000  0   -2652966.392   5749785.687   2704280.560
10 0 59880  36702.000000  0   -2316726.717   5450844.959   3509029.649
10 0 59880  36822.000000  0   -1946105.045   5050417.493   4251989.967
10 0 59880  36942.000000  0   -1549309.091   4554996.764   4920098.983
10 0 59880  37062.000000  0   -1134873.177   3972885.975   5501625.350
10 0 59880  37182.000000  0    -711475.433   3314050.027   5986372.493
10 0 59880  37302.000000  0    -287757.507   2589936.730   6365852.764
10 0 59880  37422.000000  0     127850.403   1813271.841   6633429.636
10 0 59880  37542.000000  0     527295.940    997831.818   6784428.453
10 0 59880  37662.000000  0     903059.567    158197.050   6816212.376
10 0 59880  37782.000000  0    1248294.927   -690507.849   6728225.418
10 0 59880  37902.000000  0    1556953.057  -1532886.117   6522002.583
10 0 59880  38022.000000  0    1823888.641  -2353547.538   6201144.912
10 0 59880  38142.000000  0    2044946.444  -3137390.424   5771261.166
10 0 59880  38262.000000  0    2217026.750  -3869882.040   5239874.907
10 0 59880  38382.000000  0    2338128.161  -4537331.509   4616297.913
10 0 59880  38502.000000  0    2407368.056  -5127151.110   3911472.851
10 0 59880  38622.000000  0    2424980.531  -5628101.946   3137784.562
10 0 59880  38742.000000  0    2392288.829  -6030517.021   2308842.992
10 0 59880  38862.000000  0    2311654.806  -6326495.578   1439241.067
10 0 59880  38982.000000  0    2186406.916  -6510063.559    544293.683
10 0 59880  39102.000000  0    2020747.445  -6577299.547   -360237.919
10 0 59880  39222.000000  0    1819641.760  -6526420.281  -1258433.618
10 0 59880  39342.000000  0    1588689.692  -6357820.211  -2134504.923
10 0 59880  39462.000000  0    1333985.133  -6074068.264  -2973079.536
10 0 59880  39582.000000  0    1061967.679  -5679858.579  -3759476.831
10 0 59880  39702.000000  0     779271.345  -5181921.053  -4479965.110
10 0 59880  39822.000000  0     492571.808  -4588894.113  -5121998.798
10 0 59880  39942.000000  0     208436.924  -3911163.278  -5674430.356
10 0 59880  40062.000000  0     -66816.247  -3160669.310  -6127694.912
10 0 59880  40182.000000  0    -327254.963  -2350690.788  -6473964.661
10 0 59880  40302.000000  0    -567452.466  -1495605.928  -6707272.455
10 0 59880  40422.000000  0    -782595.788   -610638.319  -6823604.425
10 0 59880  40542.000000  0    -968577.862    288410.683  -6820961.806
10 0 59880  40662.000000  0   -1122073.195   1185437.653  -6699390.218
10 0 59880  40782.000000  0   -1240595.927   2064317.913  -6460978.906
10 0 59880  40902.000000  0   -1322539.295   2909187.815  -6109828.915
10 0 59880  41022.000000  0   -1367196.598   3704726.680  -5651991.756
10 0 59880  41142.000000  0   -1374762.898   4436433.133  -5095375.143
10 0 59880  41262.000000  0   -1346317.437   5090891.789  -4449618.437
10 0 59880  41382.000000  0   -1283787.139   5656025.704  -3725936.053
10 0 59880  41502.000000  0   -1189890.928   6121327.712  -2936930.916
10 0 59880  41622.000000  0   -1068066.092   6478066.338  -2096381.641
10 0 59880  41742.000000  0    -922378.012   6719462.363  -1219004.457
10 0 59880  41862.000000  0    -757415.382   6840828.663   -320194.567
10 0 59880  41982.000000  0    -578172.635   6839672.023    584247.928
10 0 59880  42102.000000  0    -389922.772   6715751.882   1478404.192
10 0 59880  42222.000000  0    -198084.169   6471091.307   2346527.604
10 0 59880  42342.000000  0      -8085.139   6109940.884   3173329.222
10 0 59880  42462.000000  0     174770.623   5638699.889   3944252.848
10 0 59880  42582.000000  0     345434.519   5065798.160   4645736.699
10 0 59880  42702.000000  0     499236.436   4401532.864   5265458.182
10 0 59880  42822.000000  0     631997.611   3657870.791   5792544.961
10 0 59880  42942.000000  0     740131.193   2848226.185   6217762.616
10 0 59880  43062.000000  0     820726.825   1987210.749   6533671.429
10 0 59880  43182.000000  0     871618.799   1090365.017   6734750.561
10 0 59880  43302.000000  0     891436.620    173874.848   6817488.447
10 0 59880  43422.000000  0     879637.013   -745719.834   6780439.984
10 0 59880  43542.000000  0     836516.624  -1651823.157   6624251.563
10 0 59880  43662.000000  0     763205.252  -2528082.663   6351650.735
10 0 59880  43782.000000  0     661639.742  -3358685.700   5967402.022
10 0 59880  43902.000000  0     534518.485  -4128646.783   5478226.083
10 0 59880  44022.000000  0     385239.041  -4824079.662   4892687.613
10 0 59880  44142.000000  0     217819.305  -5432453.368   4221052.937
10 0 59880  44262.000000  0      36802.376  -5942828.235   3475115.280
10 0 59880  44382.000000  0    -152852.872  -6346063.152   2667989.465
10 0 59880  44502.000000  0    -345892.308  -6634989.267   1813879.885
10 0 59880  44622.000000  0    -536895.590  -6804545.635    927827.812
10 0 59880  44742.000000  0    -720410.747  -6851876.533     25439.853
10 0 59880  44862.000000  0    -891090.858  -6776381.920   -877397.087
10 0 59880  44982.000000  0   -1043828.217  -6579721.236  -1764804.721
10 0 59880  45102.000000  0   -1173883.160  -6265772.486  -2621199.955
10 0 59880  45222.000000  0   -1277004.918  -5840548.251  -3431574.445
10 0 59880  45342.000000  0   -1349541.188  -5312069.651  -4181761.198
10 0 59880  45462.000000  0   -1388533.395  -4690202.005  -4858681.458
10 0 59880  45582.000000  0   -1391795.844  -3986458.722  -5450567.243
10 0 59880  45702.000000  0   -1357977.330  -3213778.599  -5947157.780
10 0 59880  45822.000000  0   -1286603.987  -2386281.004  -6339867.547
10 0 59880  45942.000000  0   -1178102.925  -1519003.757  -6621923.272
10 0 59880  46062.000000  0   -1033806.802   -627630.204  -6788469.282
10 0 59880  46182.000000  0    -855939.510    271790.769  -6836642.143
10 0 59880  46302.000000  0    -647582.003   1163127.308  -6765613.583
10 0 59880  46422.000000  0    -412619.958   2030446.119  -6576603.004
10 0 59880  46542.000000  0    -155674.396   2858289.784  -6272859.305
10 0 59880  46662.000000  0     117985.487   3631947.862  -5859612.868
10 0 59880  46782.000000  0     402546.161   4337717.031  -5343994.372
10 0 59880  46902.000000  0     691767.227   4963144.791  -4734922.852
10 0 59880  47022.000000  0     979111.611   5497255.420  -4042963.252
10 0 59880  47142.000000  0    1257886.389   5930751.764  -3280152.677
10 0 59880  47262.000000  0    1521390.929   6256188.128  -2459798.557
10 0 59880  47382.000000  0    1763069.438   6468110.944  -1596250.642
10 0 59880  47502.000000  0    1976664.502   6563162.425   -704649.699
10 0 59880  47622.000000  0    2156367.449   6540142.894    199342.317
10 0 59880  47742.000000  0    2296961.103   6400029.893   1099823.930
10 0 59880  47862.000000  0    2393951.824   6145953.912   1980941.499
10 0 59880  47982.000000  0    2443687.185   5783131.013   2827176.518
10 0 59880  48102.000000  0    2443456.668   5318754.340   3623626.626
10 0 59880  48222.000000  0    2391572.464   4761846.783   4356274.986
10 0 59880  48342.000000  0    2287427.627   4123077.650   5012242.797
10 0 59880  48462.000000  0    2131529.591   3414546.231   5580015.288
10 0 59880  48582.000000  0    1925511.483   2649545.296   6049639.171
10 0 59880  48702.000000  0    1672120.208   1842306.059   6412893.280
10 0 59880  48822.000000  0    1375180.268   1007727.802   6663427.298
99
